[{"OBJECT_NAME":"STARLINK-3570","OBJECT_ID":"2022-022AG","EPOCH":"2026-03-09T04:32:45.429216","MEAN_MOTION":15.08832143,"ECCENTRICITY":0.00018759,"INCLINATION":53.2211,"RA_OF_ASC_NODE":1.3804,"ARG_OF_PERICENTER":91.5099,"MEAN_ANOMALY":268.6108,"EPHEMERIS_TYPE":0,"CLASSIFICATION_TYPE":"U","NORAD_CAT_ID":51882,"ELEMENT_SET_NO":999,"REV_AT_EPOCH":22322,"BSTAR":1.7344565e-5,"MEAN_MOTION_DOT":-1.2e-7,"MEAN_MOTION_DDOT":0},{"OBJECT_NAME":"OBJECT J","OBJECT_ID":"2017-042J","EPOCH":"2026-03-09T23:17:19.167936","MEAN_MOTION":15.08203331,"ECCENTRICITY":0.00078186,"INCLINATION":97.4246,"RA_OF_ASC_NODE":235.0467,"ARG_OF_PERICENTER":81.5059,"MEAN_ANOMALY":278.7055,"EPHEMERIS_TYPE":0,"CLASSIFICATION_TYPE":"U","NORAD_CAT_ID":42833,"ELEMENT_SET_NO":999,"REV_AT_EPOCH":47205,"BSTAR":0.00039182004,"MEAN_MOTION_DOT":6.006e-5,"MEAN_MOTION_DDOT":0}]
